{
  "type": "FeatureCollection",
  "features": [
    {
      "type": "Feature",
      "properties": {
        "norad_id": 34962,
        "name": "COSMOS 2251 DEB",
        "group": "cosmos-2251-debris",
        "lat": 70.1455181550302,
        "lon": -105.7600123055706,
        "alt_km": 737.2412255338268,
        "timestamp": "2025-12-08T05:48:09.429186+00:00",
        "meta_object_name": "COSMOS 2251 DEB",
        "meta_object_id": "1993-036AER",
        "meta_epoch": "2025-12-06T15:15:59.750208",
        "meta_mean_motion": 14.46490206,
        "meta_eccentricity": 0.00186998,
        "meta_inclination": 74.0296,
        "meta_ra_of_asc_node": 204.7652,
        "meta_arg_of_pericenter": 318.2038,
        "meta_mean_anomaly": 41.7692,
        "meta_ephemeris_type": 0,
        "meta_classification_type": "U",
        "meta_norad_cat_id": 34962,
        "meta_element_set_no": 999,
        "meta_rev_at_epoch": 87490,
        "meta_bstar": 0.00079418747,
        "meta_mean_motion_dot": 2.838e-05,
        "meta_mean_motion_ddot": 0,
        "tle_line1": "1 34962U 93036AER 25340.63610822  .00002838  00000+0  79419-3 0  9990",
        "tle_line2": "2 34962  74.0296 204.7652 0018699 318.2038  41.7692 14.46490206874901"
      },
      "geometry": {
        "type": "Point",
        "coordinates": [
          -105.7600123055706,
          70.1455181550302
        ]
      }
    },
    {
      "type": "Feature",
      "properties": {
        "norad_id": 34963,
        "name": "COSMOS 2251 DEB",
        "group": "cosmos-2251-debris",
        "lat": -72.69125590589952,
        "lon": -63.31618495853922,
        "alt_km": 700.028825669473,
        "timestamp": "2025-12-08T05:48:09.429196+00:00",
        "meta_object_name": "COSMOS 2251 DEB",
        "meta_object_id": "1993-036AES",
        "meta_epoch": "2025-12-05T13:42:49.417056",
        "meta_mean_motion": 14.50965864,
        "meta_eccentricity": 0.00426066,
        "meta_inclination": 74.1725,
        "meta_ra_of_asc_node": 56.1172,
        "meta_arg_of_pericenter": 253.8382,
        "meta_mean_anomaly": 105.8088,
        "meta_ephemeris_type": 0,
        "meta_classification_type": "U",
        "meta_norad_cat_id": 34963,
        "meta_element_set_no": 999,
        "meta_rev_at_epoch": 86697,
        "meta_bstar": 0.0025671523,
        "meta_mean_motion_dot": 0.00010254,
        "meta_mean_motion_ddot": 0,
        "tle_line1": "1 34963U 93036AES 25339.57140529  .00010254  00000+0  25672-2 0  9996",
        "tle_line2": "2 34963  74.1725  56.1172 0042606 253.8382 105.8088 14.50965864866978"
      },
      "geometry": {
        "type": "Point",
        "coordinates": [
          -63.31618495853922,
          -72.69125590589952
        ]
      }
    },
    {
      "type": "Feature",
      "properties": {
        "norad_id": 34964,
        "name": "COSMOS 2251 DEB",
        "group": "cosmos-2251-debris",
        "lat": 17.799627738290347,
        "lon": 0.9659321138365697,
        "alt_km": 1040.2507854060423,
        "timestamp": "2025-12-08T05:48:09.429206+00:00",
        "meta_object_name": "COSMOS 2251 DEB",
        "meta_object_id": "1993-036AET",
        "meta_epoch": "2025-12-06T09:08:23.227296",
        "meta_mean_motion": 14.00561346,
        "meta_eccentricity": 0.02131727,
        "meta_inclination": 73.9719,
        "meta_ra_of_asc_node": 358.9078,
        "meta_arg_of_pericenter": 218.6047,
        "meta_mean_anomaly": 139.9683,
        "meta_ephemeris_type": 0,
        "meta_classification_type": "U",
        "meta_norad_cat_id": 34964,
        "meta_element_set_no": 999,
        "meta_rev_at_epoch": 84389,
        "meta_bstar": 0.0026176283,
        "meta_mean_motion_dot": 4.714e-05,
        "meta_mean_motion_ddot": 0,
        "tle_line1": "1 34964U 93036AET 25340.38082439  .00004714  00000+0  26176-2 0  9997",
        "tle_line2": "2 34964  73.9719 358.9078 0213172 218.6047 139.9683 14.00561346843899"
      },
      "geometry": {
        "type": "Point",
        "coordinates": [
          0.9659321138365697,
          17.799627738290347
        ]
      }
    },
    {
      "type": "Feature",
      "properties": {
        "norad_id": 34965,
        "name": "COSMOS 2251 DEB",
        "group": "cosmos-2251-debris",
        "lat": 28.561814405818335,
        "lon": 145.8444795377644,
        "alt_km": 739.1512997879636,
        "timestamp": "2025-12-08T05:48:09.429216+00:00",
        "meta_object_name": "COSMOS 2251 DEB",
        "meta_object_id": "1993-036AEU",
        "meta_epoch": "2025-12-06T10:34:26.785056",
        "meta_mean_motion": 14.48681639,
        "meta_eccentricity": 0.00265723,
        "meta_inclination": 74.0502,
        "meta_ra_of_asc_node": 140.2593,
        "meta_arg_of_pericenter": 268.4529,
        "meta_mean_anomaly": 91.3587,
        "meta_ephemeris_type": 0,
        "meta_classification_type": "U",
        "meta_norad_cat_id": 34965,
        "meta_element_set_no": 999,
        "meta_rev_at_epoch": 87022,
        "meta_bstar": 0.00064326633,
        "meta_mean_motion_dot": 2.407e-05,
        "meta_mean_motion_ddot": 0,
        "tle_line1": "1 34965U 93036AEU 25340.44058779  .00002407  00000+0  64327-3 0  9993",
        "tle_line2": "2 34965  74.0502 140.2593 0026572 268.4529  91.3587 14.48681639870221"
      },
      "geometry": {
        "type": "Point",
        "coordinates": [
          145.8444795377644,
          28.561814405818335
        ]
      }
    },
    {
      "type": "Feature",
      "properties": {
        "norad_id": 34967,
        "name": "COSMOS 2251 DEB",
        "group": "cosmos-2251-debris",
        "lat": 11.430334831343528,
        "lon": -94.42345249679558,
        "alt_km": 724.3481062715418,
        "timestamp": "2025-12-08T05:48:09.429226+00:00",
        "meta_object_name": "COSMOS 2251 DEB",
        "meta_object_id": "1993-036AEW",
        "meta_epoch": "2025-12-07T01:29:10.329504",
        "meta_mean_motion": 14.44220775,
        "meta_eccentricity": 0.00375566,
        "meta_inclination": 73.9939,
        "meta_ra_of_asc_node": 264.4492,
        "meta_arg_of_pericenter": 52.1323,
        "meta_mean_anomaly": 308.3222,
        "meta_ephemeris_type": 0,
        "meta_classification_type": "U",
        "meta_norad_cat_id": 34967,
        "meta_element_set_no": 999,
        "meta_rev_at_epoch": 64875,
        "meta_bstar": 0.0012569981,
        "meta_mean_motion_dot": 4.329e-05,
        "meta_mean_motion_ddot": 0,
        "tle_line1": "1 34967U 93036AEW 25341.06192511  .00004329  00000+0  12570-2 0  9994",
        "tle_line2": "2 34967  73.9939 264.4492 0037556  52.1323 308.3222 14.44220775648750"
      },
      "geometry": {
        "type": "Point",
        "coordinates": [
          -94.42345249679558,
          11.430334831343528
        ]
      }
    },
    {
      "type": "Feature",
      "properties": {
        "norad_id": 34968,
        "name": "COSMOS 2251 DEB",
        "group": "cosmos-2251-debris",
        "lat": -17.20845340849833,
        "lon": -109.44158115602416,
        "alt_km": 649.4698638537466,
        "timestamp": "2025-12-08T05:48:09.429240+00:00",
        "meta_object_name": "COSMOS 2251 DEB",
        "meta_object_id": "1993-036AEX",
        "meta_epoch": "2025-12-06T12:45:13.014432",
        "meta_mean_motion": 14.59388463,
        "meta_eccentricity": 0.00863236,
        "meta_inclination": 74.0389,
        "meta_ra_of_asc_node": 258.9028,
        "meta_arg_of_pericenter": 20.8066,
        "meta_mean_anomaly": 339.6577,
        "meta_ephemeris_type": 0,
        "meta_classification_type": "U",
        "meta_norad_cat_id": 34968,
        "meta_element_set_no": 999,
        "meta_rev_at_epoch": 88387,
        "meta_bstar": 0.00035467605,
        "meta_mean_motion_dot": 1.737e-05,
        "meta_mean_motion_ddot": 0,
        "tle_line1": "1 34968U 93036AEX 25340.53140063  .00001737  00000+0  35468-3 0  9993",
        "tle_line2": "2 34968  74.0389 258.9028 0086323  20.8066 339.6577 14.59388463883876"
      },
      "geometry": {
        "type": "Point",
        "coordinates": [
          -109.44158115602416,
          -17.20845340849833
        ]
      }
    },
    {
      "type": "Feature",
      "properties": {
        "norad_id": 34969,
        "name": "COSMOS 2251 DEB",
        "group": "cosmos-2251-debris",
        "lat": 26.38595128605395,
        "lon": -156.81300405863772,
        "alt_km": 731.3436419826412,
        "timestamp": "2025-12-08T05:48:09.429276+00:00",
        "meta_object_name": "COSMOS 2251 DEB",
        "meta_object_id": "1993-036AEY",
        "meta_epoch": "2025-12-07T20:42:42.766272",
        "meta_mean_motion": 14.32243833,
        "meta_eccentricity": 0.00739307,
        "meta_inclination": 74.0146,
        "meta_ra_of_asc_node": 32.0545,
        "meta_arg_of_pericenter": 166.4071,
        "meta_mean_anomaly": 193.9095,
        "meta_ephemeris_type": 0,
        "meta_classification_type": "U",
        "meta_norad_cat_id": 34969,
        "meta_element_set_no": 999,
        "meta_rev_at_epoch": 65067,
        "meta_bstar": 0.00046322674,
        "meta_mean_motion_dot": 1.262e-05,
        "meta_mean_motion_ddot": 0,
        "tle_line1": "1 34969U 93036AEY 25341.86299498  .00001262  00000+0  46323-3 0  9993",
        "tle_line2": "2 34969  74.0146  32.0545 0073930 166.4071 193.9095 14.32243833650674"
      },
      "geometry": {
        "type": "Point",
        "coordinates": [
          -156.81300405863772,
          26.38595128605395
        ]
      }
    }
  ]
}